{"type":"FeatureCollection","features":[{"type":"Feature","properties":{"nummer":"o.Nr.","ort":"Deutz","plz":50679,"strasse":"Adolphstrasse"},"geometry":{"type":"Point","coordinates":[6.9767532,50.9353499]},"id":"132405217"},{"type":"Feature","properties":{"nummer":"o.Nr.","ort":"Neustadt-Süd","plz":50678,"strasse":"Agrippinaufer "},"geometry":{"type":"Point","coordinates":[6.9672721,50.9219475]},"id":"9615835"},{"type":"Feature","properties":{"nummer":"o.Nr.","ort":"Neustadt-Süd","plz":50678,"strasse":"Agrippinawerft "},"geometry":{"type":"Point","coordinates":[6.9686769,50.9207509]},"id":"27167919"},{"type":"Feature","properties":{"nummer":"o.Nr.","ort":"Deutz","plz":50679,"strasse":"Alfred-Schütte-Allee "},"geometry":{"type":"Point","coordinates":[6.9742625,50.9282184]},"id":"194017186"},{"type":"Feature","properties":{"nummer":"o.Nr.","ort":"Neustadt-Süd","plz":50678,"strasse":"Alteburger Strasse"},"geometry":{"type":"Point","coordinates":[6.9621025,50.9208162]},"id":"98380012"},{"type":"Feature","properties":{"nummer":"24","ort":"Neuehrenfeld","plz":50823,"strasse":"Parkgürtel"},"geometry":{"type":"Point","coordinates":[6.9320606,50.9604188]},"id":"269491520"},{"type":"Feature","properties":{"nummer":"87","ort":"Neustadt-Nord","plz":50670,"strasse":"Balthasarstrasse"},"geometry":{"type":"Point","coordinates":[6.96021654664426,50.95300535]},"id":"198666447"},{"type":"Feature","properties":{"nummer":"o.Nr.","ort":"Altstadt-Süd","plz":50678,"strasse":"Bayenstrasse"},"geometry":{"type":"Point","coordinates":[6.963628,50.9272106]},"id":"160012546"},{"type":"Feature","properties":{"nummer":"o.Nr.","ort":"Neustadt-Süd","plz":50674,"strasse":"Beethovenstrasse"},"geometry":{"type":"Point","coordinates":[6.9398945,50.9330545]},"id":"145575262"},{"type":"Feature","properties":{"nummer":"17","ort":"Altstadt-Nord","plz":50667,"strasse":"Brückenstrasse"},"geometry":{"type":"Point","coordinates":[6.9548121,50.9379742]},"id":"613450172"},{"type":"Feature","properties":{"nummer":"o.Nr.","ort":"Neustadt-Nord","plz":50674,"strasse":"Brüsseler Platz"},"geometry":{"type":"Point","coordinates":[6.9326464,50.9381879]},"id":"154755081"},{"type":"Feature","properties":{"nummer":"o.Nr.","ort":"Altstadt-Süd","plz":50678,"strasse":"Buschgasse "},"geometry":{"type":"Point","coordinates":[6.960852,50.926414]},"id":"23013270"},{"type":"Feature","properties":{"nummer":"17-19","ort":"Altstadt-Süd","plz":50676,"strasse":"Cäcilienkloster "},"geometry":{"type":"Point","coordinates":[6.9520289,50.9348808]},"id":"23795527"},{"type":"Feature","properties":{"nummer":"o.Nr.","ort":"Neustadt-Süd","plz":50678,"strasse":"Chlodwigplatz "},"geometry":{"type":"Point","coordinates":[6.959645870898,50.92107365]},"id":"203284218"},{"type":"Feature","properties":{"nummer":"o.Nr.","ort":"Neustadt-Nord","plz":50668,"strasse":"Clever Strasse"},"geometry":{"type":"Point","coordinates":[6.9665792,50.9546694]},"id":"28369098"},{"type":"Feature","properties":{"nummer":"o.Nr.","ort":"Altstadt-Nord","plz":50668,"strasse":"Dagobertstrasse"},"geometry":{"type":"Point","coordinates":[6.9627071,50.9480059]},"id":"28373908"},{"type":"Feature","properties":{"nummer":"52","ort":"Deutz","plz":50679,"strasse":"Deutz-Kalker-Strasse"},"geometry":{"type":"Point","coordinates":[6.98336694278729,50.9370627]},"id":"84673865"},{"type":"Feature","properties":{"nummer":"o.Nr.","ort":"Neustadt-Süd","plz":50677,"strasse":"Eifelplatz "},"geometry":{"type":"Point","coordinates":[6.94425205178361,50.9239671]},"id":"150031197"},{"type":"Feature","properties":{"nummer":"o.Nr.","ort":"Altstadt-Nord","plz":50668,"strasse":"Eigelstein"},"geometry":{"type":"Point","coordinates":[6.9574331,50.949383]},"id":"23543189"},{"type":"Feature","properties":{"nummer":"101","ort":"Altstadt-Nord","plz":50668,"strasse":"Eigelstein "},"geometry":{"type":"Point","coordinates":[6.95643976258322,50.9482172]},"id":"281930693"},{"type":"Feature","properties":{"nummer":"2-4","ort":"Altstadt-Nord","plz":50667,"strasse":"Eisenmarkt"},"geometry":{"type":"Point","coordinates":[6.96165627448218,50.9371754]},"id":"24040338"},{"type":"Feature","properties":{"nummer":"2","ort":"Deutz","plz":50679,"strasse":"Eitorferstrasse"},"geometry":{"type":"Point","coordinates":[6.9854868,50.9356285]},"id":"5170625"},{"type":"Feature","properties":{"nummer":"o.Nr.","ort":"Altstadt-Nord","plz":50667,"strasse":"Frankenwerft "},"geometry":{"type":"Point","coordinates":[6.9622996,50.9397806]},"id":"23480510"},{"type":"Feature","properties":{"nummer":"35","ort":"Altstadt-Nord","plz":50667,"strasse":"Frankenwerft "},"geometry":{"type":"Point","coordinates":[6.9623895,50.9382713]},"id":"427539904"},{"type":"Feature","properties":{"nummer":"96-98","ort":"Altstadt-Nord","plz":50672,"strasse":"Friesenwall "},"geometry":{"type":"Point","coordinates":[6.94122897147727,50.93983635]},"id":"180814460"},{"type":"Feature","properties":{"nummer":"o.Nr.","ort":"Altstadt-Nord","plz":50670,"strasse":"Gereonsdriesch "},"geometry":{"type":"Point","coordinates":[6.946344,50.9428849]},"id":"24456527"},{"type":"Feature","properties":{"nummer":"o.Nr.","ort":"Altstadt-Nord","plz":50670,"strasse":"Gereonsdriesch "},"geometry":{"type":"Point","coordinates":[6.946344,50.9428849]},"id":"24456527"},{"type":"Feature","properties":{"nummer":"5","ort":"Deutz","plz":50679,"strasse":"Gotenring "},"geometry":{"type":"Point","coordinates":[6.97884277261864,50.93588165]},"id":"34584163"},{"type":"Feature","properties":{"nummer":"o.Nr.","ort":"Altstadt-Nord","plz":50667,"strasse":"Gülichplatz"},"geometry":{"type":"Point","coordinates":[6.9580978,50.9374893]},"id":"154755092"},{"type":"Feature","properties":{"nummer":"6-16","ort":"Altstadt-Nord","plz":50667,"strasse":"Gürzenichstrasse "},"geometry":{"type":"Point","coordinates":[6.9579776,50.9362752]},"id":"24037280"},{"type":"Feature","properties":{"nummer":"o.Nr.","ort":"Neustadt-Süd","plz":50677,"strasse":"Hardefuststrasse"},"geometry":{"type":"Point","coordinates":[6.9469058,50.9227238]},"id":"24449420"},{"type":"Feature","properties":{"nummer":"o.Nr.","ort":"Deutz","plz":50679,"strasse":"Helenenwall"},"geometry":{"type":"Point","coordinates":[6.9728858,50.9326185]},"id":"205620051"},{"type":"Feature","properties":{"nummer":"21-29","ort":"Deutz","plz":50679,"strasse":"Helenenwall"},"geometry":{"type":"Point","coordinates":[6.9757471,50.9340556]},"id":"132405258"},{"type":"Feature","properties":{"nummer":"o.Nr.","ort":"Altstadt-Nord","plz":50667,"strasse":"Heumarkt "},"geometry":{"type":"Point","coordinates":[6.9609135,50.9360088]},"id":"42250018"},{"type":"Feature","properties":{"nummer":"o.Nr.","ort":"Altstadt-Süd","plz":50676,"strasse":"Holzmarkt"},"geometry":{"type":"Point","coordinates":[6.962777,50.9299398]},"id":"9615504"},{"type":"Feature","properties":{"nummer":"o.Nr.","ort":"Altstadt-Süd","plz":50676,"strasse":"Holzmarkt "},"geometry":{"type":"Point","coordinates":[6.962777,50.9299398]},"id":"9615504"},{"type":"Feature","properties":{"nummer":"o.Nr.","ort":"Altstadt-Süd","plz":50676,"strasse":"Holzmarkt"},"geometry":{"type":"Point","coordinates":[6.962777,50.9299398]},"id":"9615504"},{"type":"Feature","properties":{"nummer":"o.Nr.","ort":"Neustadt-Süd","plz":50678,"strasse":"Karolingerring"},"geometry":{"type":"Point","coordinates":[6.9579189,50.9214739]},"id":"150031214"},{"type":"Feature","properties":{"nummer":"o.Nr.","ort":"Deutz","plz":50679,"strasse":"Kasemattenstrasse"},"geometry":{"type":"Point","coordinates":[6.9764165,50.9381353]},"id":"132405266"},{"type":"Feature","properties":{"nummer":"o.Nr.","ort":"Deutz","plz":50679,"strasse":"Kennedy-Ufer"},"geometry":{"type":"Point","coordinates":[6.9692227,50.9408901]},"id":"33046307"},{"type":"Feature","properties":{"nummer":"o.Nr.","ort":"Deutz","plz":50679,"strasse":"Kennedy-Ufer "},"geometry":{"type":"Point","coordinates":[6.9692227,50.9408901]},"id":"33046307"},{"type":"Feature","properties":{"nummer":"o.Nr.","ort":"Neustadt-Süd","plz":50677,"strasse":"Kleingedankstrasse"},"geometry":{"type":"Point","coordinates":[6.9521162,50.9236117]},"id":"25676944"},{"type":"Feature","properties":{"nummer":"o.Nr.","ort":"Altstadt-Nord","plz":50667,"strasse":"Kolpingplatz"},"geometry":{"type":"Point","coordinates":[6.9540777,50.9391876]},"id":"23574788"},{"type":"Feature","properties":{"nummer":"o.Nr.","ort":"Altstadt-Nord","plz":50667,"strasse":"Komödienstrasse"},"geometry":{"type":"Point","coordinates":[6.9529114,50.9415426]},"id":"206149593"},{"type":"Feature","properties":{"nummer":"o.Nr.","ort":"Altstadt-Nord","plz":50667,"strasse":"Komödienstrasse"},"geometry":{"type":"Point","coordinates":[6.9529114,50.9415426]},"id":"206149593"},{"type":"Feature","properties":{"nummer":"o.Nr.","ort":"Altstadt-Nord","plz":50668,"strasse":"Konrad-Adenauer-Ufer"},"geometry":{"type":"Point","coordinates":[6.9622676,50.9423077]},"id":"156976899"},{"type":"Feature","properties":{"nummer":"69 a","ort":"Altstadt-Nord","plz":50668,"strasse":"Konrad-Adenauer-Ufer"},"geometry":{"type":"Point","coordinates":[6.9622676,50.9423077]},"id":"156976899"},{"type":"Feature","properties":{"nummer":"80","ort":"Altstadt-Nord","plz":50668,"strasse":"Konrad-Adenauer-Ufer"},"geometry":{"type":"Point","coordinates":[6.9622676,50.9423077]},"id":"156976899"},{"type":"Feature","properties":{"nummer":"o.Nr.","ort":"Altstadt-Süd","plz":50676,"strasse":"Lichhof "},"geometry":{"type":"Point","coordinates":[6.95901640564069,50.93468575]},"id":"23487089"},{"type":"Feature","properties":{"nummer":"22-26","ort":"Altstadt-Nord","plz":50667,"strasse":"Lintgasse "},"geometry":{"type":"Point","coordinates":[6.9613606,50.9381485]},"id":"7974352"},{"type":"Feature","properties":{"nummer":"13-15","ort":"Neustadt-Süd","plz":50674,"strasse":"Lochnerstrasse"},"geometry":{"type":"Point","coordinates":[6.9355173231055,50.930003]},"id":"218895717"},{"type":"Feature","properties":{"nummer":"o.Nr.","ort":"Neustadt-Süd","plz":50677,"strasse":"Lothringer Strasse"},"geometry":{"type":"Point","coordinates":[6.9485746,50.9242706]},"id":"8196681"},{"type":"Feature","properties":{"nummer":"o.Nr.","ort":"Neustadt-Nord","plz":50672,"strasse":"Ludolf-Camphausen-Strasse"},"geometry":{"type":"Point","coordinates":[6.9320677,50.9423232]},"id":"4672012"},{"type":"Feature","properties":{"nummer":"66","ort":"Neustadt-Süd","plz":50674,"strasse":"Luxemburger Strasse"},"geometry":{"type":"Point","coordinates":[6.9380532,50.9259957]},"id":"429693513"},{"type":"Feature","properties":{"nummer":"80","ort":"Neustadt-Süd","plz":50674,"strasse":"Luxemburger Strasse"},"geometry":{"type":"Point","coordinates":[6.93758437108108,50.92559635]},"id":"100767931"},{"type":"Feature","properties":{"nummer":"o.Nr.","ort":"Neustadt-Süd","plz":50678,"strasse":"Mainzer Strasse"},"geometry":{"type":"Point","coordinates":[6.9651275,50.9166744]},"id":"26942777"},{"type":"Feature","properties":{"nummer":"7","ort":"Altstadt-Nord","plz":50667,"strasse":"Markmannsgasse "},"geometry":{"type":"Point","coordinates":[6.9621187,50.9367867]},"id":"633167965"},{"type":"Feature","properties":{"nummer":"o.Nr.","ort":"Altstadt-Nord","plz":50667,"strasse":"Marsplatz "},"geometry":{"type":"Point","coordinates":[6.9594795,50.9376335]},"id":"51774292"},{"type":"Feature","properties":{"nummer":"59","ort":"Altstadt-Süd","plz":50676,"strasse":"Mauritiussteinweg"},"geometry":{"type":"Point","coordinates":[6.9454342,50.9323905]},"id":"2466645752"},{"type":"Feature","properties":{"nummer":"3","ort":"Neustadt-Nord","plz":50670,"strasse":"Melchiorstrasse"},"geometry":{"type":"Point","coordinates":[6.95458580184544,50.9521542]},"id":"119893064"},{"type":"Feature","properties":{"nummer":"o.Nr.","ort":"Neustadt-Nord","plz":50668,"strasse":"Merlostrasse"},"geometry":{"type":"Point","coordinates":[6.9634428,50.9543987]},"id":"36394703"},{"type":"Feature","properties":{"nummer":"o.Nr.","ort":"Neustadt-Nord","plz":50674,"strasse":"Moltkestrasse"},"geometry":{"type":"Point","coordinates":[6.9327427,50.9381833]},"id":"4004116"},{"type":"Feature","properties":{"nummer":"o.Nr.","ort":"Neustadt-Süd","plz":50674,"strasse":"Moselstrasse"},"geometry":{"type":"Point","coordinates":[6.9375874,50.927912]},"id":"32021100"},{"type":"Feature","properties":{"nummer":"1-15","ort":"Altstadt-Nord","plz":50667,"strasse":"Mühlengasse"},"geometry":{"type":"Point","coordinates":[6.9609834,50.9392091]},"id":"8581146"},{"type":"Feature","properties":{"nummer":"o.Nr.","ort":"Altstadt-Süd","plz":50667,"strasse":"Neumarkt "},"geometry":{"type":"Point","coordinates":[6.9464629,50.9364057]},"id":"23493176"}]}